FENGYUN 1C DEB          
1 29974U 99025KY  17345.73339248  .00000374  00000-0  25835-3 0  9995
2 29974  99.0656  48.1028 0050458 341.3905 142.2958 14.04746179558156
